{"type": "FeatureCollection", "features": [ {"type": "Feature", "properties": {"norad_id": 38552, "name": "METEOSAT-10 (MSG-3)", "group": "weather", "lat": -4.133946759635, "lon": -40.831626899364295, "alt_km": 35782.425592925974, "timestamp": "2025-12-11T15:53:39.185164+00:00", "meta": {"OBJECT_NAME": "METEOSAT-10 (MSG-3)", "OBJECT_ID": "2012-035B", "EPOCH": "2025-12-10T23:48:54.537696", "MEAN_MOTION": 1.00274457, "ECCENTRICITY": 8.27e-05, "INCLINATION": 4.2251, "RA_OF_ASC_NODE": 61.7286, "ARG_OF_PERICENTER": 246.6369, "MEAN_ANOMALY": 128.9806, "EPHEMERIS_TYPE": 0, "CLASSIFICATION_TYPE": "U", "NORAD_CAT_ID": 38552, "ELEMENT_SET_NO": 999, "REV_AT_EPOCH": 4897, "BSTAR": 0, "MEAN_MOTION_DOT": -1e-08, "MEAN_MOTION_DDOT": 0}, "tle": {"line1": "1 38552U 12035B   25344.99229789 -.00000001  00000+0  00000+0 0  9997", "line2": "2 38552   4.2251  61.7286 0000827 246.6369 128.9806  1.00274457 48974"}}, "geometry": {"type": "Point", "coordinates": [-40.831626899364295, -4.133946759635]}}, {"type": "Feature", "properties": {"norad_id": 38771, "name": "METOP-B", "group": "weather", "lat": -22.469765810615982, "lon": 39.261782439894255, "alt_km": 827.9351532486571, "timestamp": "2025-12-11T15:53:39.185176+00:00", "meta": {"OBJECT_NAME": "METOP-B", "OBJECT_ID": "2012-049A", "EPOCH": "2025-12-11T05:51:52.223616", "MEAN_MOTION": 14.21407606, "ECCENTRICITY": 0.00028442, "INCLINATION": 98.6801, "RA_OF_ASC_NODE": 35.2285, "ARG_OF_PERICENTER": 147.3464, "MEAN_ANOMALY": 212.789, "EPHEMERIS_TYPE": 0, "CLASSIFICATION_TYPE": "U", "NORAD_CAT_ID": 38771, "ELEMENT_SET_NO": 999, "REV_AT_EPOCH": 68656, "BSTAR": 0.00012773756, "MEAN_MOTION_DOT": 2.36e-06, "MEAN_MOTION_DDOT": 0}, "tle": {"line1": "1 38771U 12049A   25345.24435444  .00000236  00000+0  12774-3 0  9995", "line2": "2 38771  98.6801  35.2285 0002844 147.3464 212.7890 14.21407606686563"}}, "geometry": {"type": "Point", "coordinates": [39.261782439894255, -22.469765810615982]}}, {"type": "Feature", "properties": {"norad_id": 39216, "name": "INSAT-3D", "group": "weather", "lat": 0.10751656659268351, "lon": 88.56278148041939, "alt_km": 35792.69668795318, "timestamp": "2025-12-11T15:53:39.185187+00:00", "meta": {"OBJECT_NAME": "INSAT-3D", "OBJECT_ID": "2013-038B", "EPOCH": "2025-12-10T22:43:08.338656", "MEAN_MOTION": 1.00270704, "ECCENTRICITY": 0.00015644, "INCLINATION": 1.4406, "RA_OF_ASC_NODE": 85.0084, "ARG_OF_PERICENTER": 163.5127, "MEAN_ANOMALY": 301.7215, "EPHEMERIS_TYPE": 0, "CLASSIFICATION_TYPE": "U", "NORAD_CAT_ID": 39216, "ELEMENT_SET_NO": 999, "REV_AT_EPOCH": 4519, "BSTAR": 0, "MEAN_MOTION_DOT": -3.34e-06, "MEAN_MOTION_DDOT": 0}, "tle": {"line1": "1 39216U 13038B   25344.94662429 -.00000334  00000+0  00000+0 0  9995", "line2": "2 39216   1.4406  85.0084 0001564 163.5127 301.7215  1.00270704 45193"}}, "geometry": {"type": "Point", "coordinates": [88.56278148041939, 0.10751656659268351]}}, {"type": "Feature", "properties": {"norad_id": 39260, "name": "FENGYUN 3C", "group": "weather", "lat": -65.28731565952928, "lon": 124.48804835364015, "alt_km": 840.1945520333438, "timestamp": "2025-12-11T15:53:39.185198+00:00", "meta": {"OBJECT_NAME": "FENGYUN 3C", "OBJECT_ID": "2013-052A", "EPOCH": "2025-12-11T06:15:06.203808", "MEAN_MOTION": 14.15696685, "ECCENTRICITY": 0.00142047, "INCLINATION": 98.4761, "RA_OF_ASC_NODE": 323.0121, "ARG_OF_PERICENTER": 200.4066, "MEAN_ANOMALY": 159.6543, "EPHEMERIS_TYPE": 0, "CLASSIFICATION_TYPE": "U", "NORAD_CAT_ID": 39260, "ELEMENT_SET_NO": 999, "REV_AT_EPOCH": 63197, "BSTAR": 0.00020265796, "MEAN_MOTION_DOT": 3.57e-06, "MEAN_MOTION_DDOT": 0}, "tle": {"line1": "1 39260U 13052A   25345.26048847  .00000357  00000+0  20266-3 0  9992", "line2": "2 39260  98.4761 323.0121 0014204 200.4066 159.6543 14.15696685631978"}}, "geometry": {"type": "Point", "coordinates": [124.48804835364015, -65.28731565952928]}}, {"type": "Feature", "properties": {"norad_id": 40069, "name": "METEOR-M 2", "group": "weather", "lat": -25.621242008090135, "lon": 139.17999955823007, "alt_km": 822.7553293919036, "timestamp": "2025-12-11T15:53:39.185209+00:00", "meta": {"OBJECT_NAME": "METEOR-M 2", "OBJECT_ID": "2014-037A", "EPOCH": "2025-12-11T06:28:53.234112", "MEAN_MOTION": 14.21386766, "ECCENTRICITY": 0.0004903, "INCLINATION": 98.4903, "RA_OF_ASC_NODE": 322.9108, "ARG_OF_PERICENTER": 214.7615, "MEAN_ANOMALY": 145.3243, "EPHEMERIS_TYPE": 0, "CLASSIFICATION_TYPE": "U", "NORAD_CAT_ID": 40069, "ELEMENT_SET_NO": 999, "REV_AT_EPOCH": 59262, "BSTAR": 0.00030002553, "MEAN_MOTION_DOT": 6.13e-06, "MEAN_MOTION_DDOT": 0}, "tle": {"line1": "1 40069U 14037A   25345.27006058  .00000613  00000+0  30003-3 0  9999", "line2": "2 40069  98.4903 322.9108 0004903 214.7615 145.3243 14.21386766592621"}}, "geometry": {"type": "Point", "coordinates": [139.17999955823007, -25.621242008090135]}}, {"type": "Feature", "properties": {"norad_id": 40267, "name": "HIMAWARI-8", "group": "weather", "lat": -0.006845291723636437, "lon": 99.68754940127545, "alt_km": 35791.34069262506, "timestamp": "2025-12-11T15:53:39.185221+00:00", "meta": {"OBJECT_NAME": "HIMAWARI-8", "OBJECT_ID": "2014-060A", "EPOCH": "2025-12-11T05:37:15.120192", "MEAN_MOTION": 1.00270271, "ECCENTRICITY": 0.00012236, "INCLINATION": 0.0351, "RA_OF_ASC_NODE": 196.4509, "ARG_OF_PERICENTER": 105.3462, "MEAN_ANOMALY": 3.3698, "EPHEMERIS_TYPE": 0, "CLASSIFICATION_TYPE": "U", "NORAD_CAT_ID": 40267, "ELEMENT_SET_NO": 999, "REV_AT_EPOCH": 4087, "BSTAR": 0, "MEAN_MOTION_DOT": -2.69e-06, "MEAN_MOTION_DDOT": 0}, "tle": {"line1": "1 40267U 14060A   25345.23420278 -.00000269  00000+0  00000+0 0  9993", "line2": "2 40267   0.0351 196.4509 0001223 105.3462   3.3698  1.00270271 40871"}}, "geometry": {"type": "Point", "coordinates": [99.68754940127545, -0.006845291723636437]}}, {"type": "Feature", "properties": {"norad_id": 40367, "name": "FENGYUN 2G", "group": "weather", "lat": -1.4483983611765805, "lon": 58.67001916590916, "alt_km": 35799.70119962635, "timestamp": "2025-12-11T15:53:39.185232+00:00", "meta": {"OBJECT_NAME": "FENGYUN 2G", "OBJECT_ID": "2014-090A", "EPOCH": "2025-12-10T20:22:55.693344", "MEAN_MOTION": 1.00264635, "ECCENTRICITY": 0.00031271, "INCLINATION": 5.1637, "RA_OF_ASC_NODE": 75.1179, "ARG_OF_PERICENTER": 194.7733, "MEAN_ANOMALY": 215.2369, "EPHEMERIS_TYPE": 0, "CLASSIFICATION_TYPE": "U", "NORAD_CAT_ID": 40367, "ELEMENT_SET_NO": 999, "REV_AT_EPOCH": 4011, "BSTAR": 0, "MEAN_MOTION_DOT": -2.96e-06, "MEAN_MOTION_DDOT": 0}, "tle": {"line1": "1 40367U 14090A   25344.84925571 -.00000296  00000+0  00000+0 0  9999", "line2": "2 40367   5.1637  75.1179 0003127 194.7733 215.2369  1.00264635 40112"}}, "geometry": {"type": "Point", "coordinates": [58.67001916590916, -1.4483983611765805]}}, {"type": "Feature", "properties": {"norad_id": 40732, "name": "METEOSAT-11 (MSG-4)", "group": "weather", "lat": -2.660141710643863, "lon": -31.66624068547482, "alt_km": 35790.373648610206, "timestamp": "2025-12-11T15:53:39.185245+00:00", "meta": {"OBJECT_NAME": "METEOSAT-11 (MSG-4)", "OBJECT_ID": "2015-034A", "EPOCH": "2025-12-11T04:59:33.728928", "MEAN_MOTION": 1.00267015, "ECCENTRICITY": 9.465e-05, "INCLINATION": 2.7315, "RA_OF_ASC_NODE": 72.0057, "ARG_OF_PERICENTER": 124.5533, "MEAN_ANOMALY": 327.8196, "EPHEMERIS_TYPE": 0, "CLASSIFICATION_TYPE": "U", "NORAD_CAT_ID": 40732, "ELEMENT_SET_NO": 999, "REV_AT_EPOCH": 533, "BSTAR": 0, "MEAN_MOTION_DOT": 6.7e-07, "MEAN_MOTION_DDOT": 0}, "tle": {"line1": "1 40732U 15034A   25345.20802927  .00000067  00000+0  00000+0 0  9999", "line2": "2 40732   2.7315  72.0057 0000946 124.5533 327.8196  1.00267015  5338"}}, "geometry": {"type": "Point", "coordinates": [-31.66624068547482, -2.660141710643863]}}, {"type": "Feature", "properties": {"norad_id": 41105, "name": "ELEKTRO-L 2", "group": "weather", "lat": -4.894962051959694, "lon": -55.60416487371658, "alt_km": 35772.75196024035, "timestamp": "2025-12-11T15:53:39.185256+00:00", "meta": {"OBJECT_NAME": "ELEKTRO-L 2", "OBJECT_ID": "2015-074A", "EPOCH": "2025-12-11T02:11:38.541984", "MEAN_MOTION": 1.00272182, "ECCENTRICITY": 0.00038781, "INCLINATION": 6.222, "RA_OF_ASC_NODE": 72.8471, "ARG_OF_PERICENTER": 199.5378, "MEAN_ANOMALY": 186.0824, "EPHEMERIS_TYPE": 0, "CLASSIFICATION_TYPE": "U", "NORAD_CAT_ID": 41105, "ELEMENT_SET_NO": 999, "REV_AT_EPOCH": 3662, "BSTAR": 0, "MEAN_MOTION_DOT": -1.12e-06, "MEAN_MOTION_DDOT": 0}, "tle": {"line1": "1 41105U 15074A   25345.09141831 -.00000112  00000+0  00000+0 0  9997", "line2": "2 41105   6.2220  72.8471 0003878 199.5378 186.0824  1.00272182 36621"}}, "geometry": {"type": "Point", "coordinates": [-55.60416487371658, -4.894962051959694]}}, {"type": "Feature", "properties": {"norad_id": 41752, "name": "INSAT-3DR", "group": "weather", "lat": -0.054114625090976254, "lon": 33.16803590864045, "alt_km": 35819.37778515361, "timestamp": "2025-12-11T15:53:39.185268+00:00", "meta": {"OBJECT_NAME": "INSAT-3DR", "OBJECT_ID": "2016-054A", "EPOCH": "2025-12-11T03:35:26.786112", "MEAN_MOTION": 1.00270645, "ECCENTRICITY": 0.00144362, "INCLINATION": 0.088, "RA_OF_ASC_NODE": 86.584, "ARG_OF_PERICENTER": 183.936, "MEAN_ANOMALY": 297.4576, "EPHEMERIS_TYPE": 0, "CLASSIFICATION_TYPE": "U", "NORAD_CAT_ID": 41752, "ELEMENT_SET_NO": 999, "REV_AT_EPOCH": 3393, "BSTAR": 0, "MEAN_MOTION_DOT": -7.1e-07, "MEAN_MOTION_DDOT": 0}, "tle": {"line1": "1 41752U 16054A   25345.14961558 -.00000071  00000+0  00000+0 0  9990", "line2": "2 41752   0.0880  86.5840 0014436 183.9360 297.4576  1.00270645 33939"}}, "geometry": {"type": "Point", "coordinates": [33.16803590864045, -0.054114625090976254]}}]}